{
  "links" : {
    "next" : "https://api.nasa.gov/neo/rest/v1/feed?start_date=2009-08-16&end_date=2009-08-16&detailed=true&api_key=t0TVs3DtDT2H8Oy2Zy8m2eVrNsAVKAexjcZXUckd",
    "prev" : "https://api.nasa.gov/neo/rest/v1/feed?start_date=2009-08-14&end_date=2009-08-14&detailed=true&api_key=t0TVs3DtDT2H8Oy2Zy8m2eVrNsAVKAexjcZXUckd",
    "self" : "https://api.nasa.gov/neo/rest/v1/feed?start_date=2009-08-15&end_date=2009-08-15&detailed=true&api_key=t0TVs3DtDT2H8Oy2Zy8m2eVrNsAVKAexjcZXUckd"
  },
  "element_count" : 2,
  "near_earth_objects" : {
    "2009-08-15" : [ {
      "links" : {
        "self" : "https://api.nasa.gov/neo/rest/v1/neo/2011066?api_key=t0TVs3DtDT2H8Oy2Zy8m2eVrNsAVKAexjcZXUckd"
      },
      "neo_reference_id" : "2011066",
      "name" : "11066 Sigurd (1992 CC1)",
      "nasa_jpl_url" : "http://ssd.jpl.nasa.gov/sbdb.cgi?sstr=2011066",
      "absolute_magnitude_h" : 15.2,
      "estimated_diameter" : {
        "kilometers" : {
          "estimated_diameter_min" : 2.424124811,
          "estimated_diameter_max" : 5.4205078634
        },
        "meters" : {
          "estimated_diameter_min" : 2424.124811008,
          "estimated_diameter_max" : 5420.5078633577
        },
        "miles" : {
          "estimated_diameter_min" : 1.5062808579,
          "estimated_diameter_max" : 3.3681463916
        },
        "feet" : {
          "estimated_diameter_min" : 7953.1656449475,
          "estimated_diameter_max" : 17783.8190184186
        }
      },
      "is_potentially_hazardous_asteroid" : false,
      "close_approach_data" : [ {
        "close_approach_date" : "2009-08-15",
        "epoch_date_close_approach" : 1250319600000,
        "relative_velocity" : {
          "kilometers_per_second" : "26.114916812",
          "kilometers_per_hour" : "94013.700523326",
          "miles_per_hour" : "58416.4574168411"
        },
        "miss_distance" : {
          "astronomical" : "0.3826779521",
          "lunar" : "148.8617248535",
          "kilometers" : "57247804",
          "miles" : "35572136"
        },
        "orbiting_body" : "Earth"
      } ],
      "orbital_data" : {
        "orbit_id" : "188",
        "orbit_determination_date" : "2017-06-22 06:21:06",
        "orbit_uncertainty" : "0",
        "minimum_orbit_intersection" : ".118327",
        "jupiter_tisserand_invariant" : "4.506",
        "epoch_osculation" : "2458000.5",
        "eccentricity" : ".3753816859282663",
        "semi_major_axis" : "1.391484868264752",
        "inclination" : "36.88285706608059",
        "ascending_node_longitude" : "349.2457907129908",
        "orbital_period" : "599.5372324153017",
        "perihelion_distance" : ".8691469324718575",
        "perihelion_argument" : "22.00620475726865",
        "aphelion_distance" : "1.913822804057646",
        "perihelion_time" : "2458077.024417935375",
        "mean_anomaly" : "314.0499088843047",
        "mean_motion" : ".6004631247832606",
        "equinox" : "J2000"
      }
    }, {
      "links" : {
        "self" : "https://api.nasa.gov/neo/rest/v1/neo/3288441?api_key=t0TVs3DtDT2H8Oy2Zy8m2eVrNsAVKAexjcZXUckd"
      },
      "neo_reference_id" : "3288441",
      "name" : "(2005 PJ2)",
      "nasa_jpl_url" : "http://ssd.jpl.nasa.gov/sbdb.cgi?sstr=3288441",
      "absolute_magnitude_h" : 19.5,
      "estimated_diameter" : {
        "kilometers" : {
          "estimated_diameter_min" : 0.3346223745,
          "estimated_diameter_max" : 0.7482383761
        },
        "meters" : {
          "estimated_diameter_min" : 334.6223744549,
          "estimated_diameter_max" : 748.2383760735
        },
        "miles" : {
          "estimated_diameter_min" : 0.2079246394,
          "estimated_diameter_max" : 0.464933628
        },
        "feet" : {
          "estimated_diameter_min" : 1097.8424710066,
          "estimated_diameter_max" : 2454.8503937571
        }
      },
      "is_potentially_hazardous_asteroid" : true,
      "close_approach_data" : [ {
        "close_approach_date" : "2009-08-15",
        "epoch_date_close_approach" : 1250319600000,
        "relative_velocity" : {
          "kilometers_per_second" : "30.8864320278",
          "kilometers_per_hour" : "111191.1553001203",
          "miles_per_hour" : "69089.8598030109"
        },
        "miss_distance" : {
          "astronomical" : "0.2977959",
          "lunar" : "115.8426055908",
          "kilometers" : "44549632",
          "miles" : "27681858"
        },
        "orbiting_body" : "Earth"
      } ],
      "orbital_data" : {
        "orbit_id" : "30",
        "orbit_determination_date" : "2017-04-06 09:10:41",
        "orbit_uncertainty" : "0",
        "minimum_orbit_intersection" : ".0439791",
        "jupiter_tisserand_invariant" : "5.032",
        "epoch_osculation" : "2458000.5",
        "eccentricity" : ".659355624356696",
        "semi_major_axis" : "1.198040028017575",
        "inclination" : "17.41337888169895",
        "ascending_node_longitude" : "326.5187742358735",
        "orbital_period" : "478.9668097479602",
        "perihelion_distance" : ".4081055973397332",
        "perihelion_argument" : "128.7981234630902",
        "aphelion_distance" : "1.987974458695417",
        "perihelion_time" : "2457979.936417784738",
        "mean_anomaly" : "15.45595529132799",
        "mean_motion" : ".7516178421411654",
        "equinox" : "J2000"
      }
    } ]
  }
}